[{"OBJECT_NAME":"ALOS (DAICHI)","OBJECT_ID":"2006-002A","EPOCH":"2026-03-23T14:16:15.968928","MEAN_MOTION":14.6985082,"ECCENTRICITY":7.103e-5,"INCLINATION":98.1242,"RA_OF_ASC_NODE":38.4826,"ARG_OF_PERICENTER":94.4475,"MEAN_ANOMALY":265.6812,"EPHEMERIS_TYPE":0,"CLASSIFICATION_TYPE":"U","NORAD_CAT_ID":28931,"ELEMENT_SET_NO":999,"REV_AT_EPOCH":7552,"BSTAR":0.00022983541,"MEAN_MOTION_DOT":1.324e-5,"MEAN_MOTION_DDOT":0},{"OBJECT_NAME":"H-2A R/B","OBJECT_ID":"2006-002B","EPOCH":"2026-03-24T07:44:30.092064","MEAN_MOTION":15.16734395,"ECCENTRICITY":0.00523,"INCLINATION":98.2441,"RA_OF_ASC_NODE":231.6103,"ARG_OF_PERICENTER":190.7906,"MEAN_ANOMALY":169.2207,"EPHEMERIS_TYPE":0,"CLASSIFICATION_TYPE":"U","NORAD_CAT_ID":28932,"ELEMENT_SET_NO":999,"REV_AT_EPOCH":9665,"BSTAR":0.00047074601,"MEAN_MOTION_DOT":9.484e-5,"MEAN_MOTION_DDOT":0},{"OBJECT_NAME":"RESURS-DK 1","OBJECT_ID":"2006-021A","EPOCH":"2026-03-23T18:02:22.728480","MEAN_MOTION":15.1283541,"ECCENTRICITY":7.134e-5,"INCLINATION":69.9339,"RA_OF_ASC_NODE":200.647,"ARG_OF_PERICENTER":89.5327,"MEAN_ANOMALY":270.5921,"EPHEMERIS_TYPE":0,"CLASSIFICATION_TYPE":"U","NORAD_CAT_ID":29228,"ELEMENT_SET_NO":999,"REV_AT_EPOCH":8965,"BSTAR":0.00016022921,"MEAN_MOTION_DOT":2.715e-5,"MEAN_MOTION_DDOT":0},{"OBJECT_NAME":"CZ-4B R/B","OBJECT_ID":"2006-046C","EPOCH":"2026-03-24T02:54:12.951936","MEAN_MOTION":15.17047729,"ECCENTRICITY":0.00322854,"INCLINATION":97.5564,"RA_OF_ASC_NODE":127.9906,"ARG_OF_PERICENTER":215.1517,"MEAN_ANOMALY":144.7587,"EPHEMERIS_TYPE":0,"CLASSIFICATION_TYPE":"U","NORAD_CAT_ID":29507,"ELEMENT_SET_NO":999,"REV_AT_EPOCH":6223,"BSTAR":0.0002526054,"MEAN_MOTION_DOT":4.994e-5,"MEAN_MOTION_DDOT":0},{"OBJECT_NAME":"CZ-2C R/B","OBJECT_ID":"2007-010B","EPOCH":"2026-03-24T07:25:05.418336","MEAN_MOTION":14.20251257,"ECCENTRICITY":0.00579276,"INCLINATION":98.3994,"RA_OF_ASC_NODE":195.8562,"ARG_OF_PERICENTER":251.2653,"MEAN_ANOMALY":108.2233,"EPHEMERIS_TYPE":0,"CLASSIFICATION_TYPE":"U","NORAD_CAT_ID":31114,"ELEMENT_SET_NO":999,"REV_AT_EPOCH":98179,"BSTAR":7.9936216e-5,"MEAN_MOTION_DOT":1.32e-6,"MEAN_MOTION_DDOT":0},{"OBJECT_NAME":"COSMO-SKYMED 1","OBJECT_ID":"2007-023A","EPOCH":"2026-03-24T05:45:27.113760","MEAN_MOTION":14.96640411,"ECCENTRICITY":0.00010672,"INCLINATION":97.888,"RA_OF_ASC_NODE":274.3906,"ARG_OF_PERICENTER":87.8942,"MEAN_ANOMALY":272.2401,"EPHEMERIS_TYPE":0,"CLASSIFICATION_TYPE":"U","NORAD_CAT_ID":31598,"ELEMENT_SET_NO":999,"REV_AT_EPOCH":1708,"BSTAR":0.00024253635,"MEAN_MOTION_DOT":2.705e-5,"MEAN_MOTION_DDOT":0},{"OBJECT_NAME":"COSMOS 2428","OBJECT_ID":"2007-029A","EPOCH":"2026-03-24T06:14:30.841152","MEAN_MOTION":14.12948015,"ECCENTRICITY":0.00096174,"INCLINATION":70.9441,"RA_OF_ASC_NODE":172.7633,"ARG_OF_PERICENTER":262.1498,"MEAN_ANOMALY":97.8531,"EPHEMERIS_TYPE":0,"CLASSIFICATION_TYPE":"U","NORAD_CAT_ID":31792,"ELEMENT_SET_NO":999,"REV_AT_EPOCH":96615,"BSTAR":1.9610423e-5,"MEAN_MOTION_DOT":-1.1e-7,"MEAN_MOTION_DDOT":0},{"OBJECT_NAME":"SL-16 R/B","OBJECT_ID":"2007-029B","EPOCH":"2026-03-24T04:46:01.363296","MEAN_MOTION":14.14841932,"ECCENTRICITY":0.00025199,"INCLINATION":70.9755,"RA_OF_ASC_NODE":141.8874,"ARG_OF_PERICENTER":276.9911,"MEAN_ANOMALY":143.7799,"EPHEMERIS_TYPE":0,"CLASSIFICATION_TYPE":"U","NORAD_CAT_ID":31793,"ELEMENT_SET_NO":999,"REV_AT_EPOCH":96742,"BSTAR":0.00013809419,"MEAN_MOTION_DOT":2.19e-6,"MEAN_MOTION_DDOT":0},{"OBJECT_NAME":"KORONAS-FOTON","OBJECT_ID":"2009-003A","EPOCH":"2026-03-24T06:52:10.138080","MEAN_MOTION":15.43697304,"ECCENTRICITY":0.00118109,"INCLINATION":82.4279,"RA_OF_ASC_NODE":260.6954,"ARG_OF_PERICENTER":102.3489,"MEAN_ANOMALY":257.9081,"EPHEMERIS_TYPE":0,"CLASSIFICATION_TYPE":"U","NORAD_CAT_ID":33504,"ELEMENT_SET_NO":999,"REV_AT_EPOCH":94799,"BSTAR":0.00029840541,"MEAN_MOTION_DOT":0.00013535,"MEAN_MOTION_DDOT":0},{"OBJECT_NAME":"CZ-2C R/B","OBJECT_ID":"2011-030B","EPOCH":"2026-03-24T03:01:22.124064","MEAN_MOTION":14.81271857,"ECCENTRICITY":0.00512971,"INCLINATION":97.857,"RA_OF_ASC_NODE":40.1028,"ARG_OF_PERICENTER":304.4753,"MEAN_ANOMALY":65.4429,"EPHEMERIS_TYPE":0,"CLASSIFICATION_TYPE":"U","NORAD_CAT_ID":37731,"ELEMENT_SET_NO":999,"REV_AT_EPOCH":79223,"BSTAR":0.00019549119,"MEAN_MOTION_DOT":1.503e-5,"MEAN_MOTION_DDOT":0},{"OBJECT_NAME":"H-2A R/B","OBJECT_ID":"2012-025E","EPOCH":"2026-03-24T04:24:04.336992","MEAN_MOTION":14.95265395,"ECCENTRICITY":0.00428013,"INCLINATION":98.4756,"RA_OF_ASC_NODE":51.3931,"ARG_OF_PERICENTER":265.1602,"MEAN_ANOMALY":94.4728,"EPHEMERIS_TYPE":0,"CLASSIFICATION_TYPE":"U","NORAD_CAT_ID":38341,"ELEMENT_SET_NO":999,"REV_AT_EPOCH":75038,"BSTAR":0.00031308481,"MEAN_MOTION_DOT":3.439e-5,"MEAN_MOTION_DDOT":0},{"OBJECT_NAME":"SHIJIAN-16 (SJ-16)","OBJECT_ID":"2013-057A","EPOCH":"2026-03-24T07:26:44.863872","MEAN_MOTION":14.92406797,"ECCENTRICITY":0.00151872,"INCLINATION":74.9725,"RA_OF_ASC_NODE":157.4116,"ARG_OF_PERICENTER":74.5742,"MEAN_ANOMALY":285.7122,"EPHEMERIS_TYPE":0,"CLASSIFICATION_TYPE":"U","NORAD_CAT_ID":39358,"ELEMENT_SET_NO":999,"REV_AT_EPOCH":67368,"BSTAR":0.00017201458,"MEAN_MOTION_DOT":1.737e-5,"MEAN_MOTION_DDOT":0},{"OBJECT_NAME":"SL-4 R/B","OBJECT_ID":"2014-021B","EPOCH":"2026-03-24T05:38:35.345184","MEAN_MOTION":15.39661008,"ECCENTRICITY":0.00961597,"INCLINATION":51.6056,"RA_OF_ASC_NODE":266.2918,"ARG_OF_PERICENTER":155.9801,"MEAN_ANOMALY":204.5712,"EPHEMERIS_TYPE":0,"CLASSIFICATION_TYPE":"U","NORAD_CAT_ID":39679,"ELEMENT_SET_NO":999,"REV_AT_EPOCH":65851,"BSTAR":0.00034771932,"MEAN_MOTION_DOT":0.00015983,"MEAN_MOTION_DDOT":0},{"OBJECT_NAME":"ALOS-2","OBJECT_ID":"2014-029A","EPOCH":"2026-03-24T06:13:56.114400","MEAN_MOTION":14.79430377,"ECCENTRICITY":0.00018251,"INCLINATION":97.9186,"RA_OF_ASC_NODE":181.6451,"ARG_OF_PERICENTER":106.988,"MEAN_ANOMALY":253.1531,"EPHEMERIS_TYPE":0,"CLASSIFICATION_TYPE":"U","NORAD_CAT_ID":39766,"ELEMENT_SET_NO":999,"REV_AT_EPOCH":63902,"BSTAR":0.00028143642,"MEAN_MOTION_DOT":2.049e-5,"MEAN_MOTION_DDOT":0},{"OBJECT_NAME":"YAOGAN-29","OBJECT_ID":"2015-069A","EPOCH":"2026-03-24T07:13:18.732864","MEAN_MOTION":14.83011418,"ECCENTRICITY":8.602e-5,"INCLINATION":98.0119,"RA_OF_ASC_NODE":111.768,"ARG_OF_PERICENTER":11.0273,"MEAN_ANOMALY":349.0959,"EPHEMERIS_TYPE":0,"CLASSIFICATION_TYPE":"U","NORAD_CAT_ID":41038,"ELEMENT_SET_NO":999,"REV_AT_EPOCH":55804,"BSTAR":0.00010104561,"MEAN_MOTION_DOT":7.67e-6,"MEAN_MOTION_DDOT":0},{"OBJECT_NAME":"ASTRO-H (HITOMI)","OBJECT_ID":"2016-012A","EPOCH":"2026-03-24T04:13:47.640576","MEAN_MOTION":15.10092853,"ECCENTRICITY":0.00095916,"INCLINATION":30.9988,"RA_OF_ASC_NODE":263.0565,"ARG_OF_PERICENTER":117.1413,"MEAN_ANOMALY":243.0204,"EPHEMERIS_TYPE":0,"CLASSIFICATION_TYPE":"U","NORAD_CAT_ID":41337,"ELEMENT_SET_NO":999,"REV_AT_EPOCH":55442,"BSTAR":0.00017143344,"MEAN_MOTION_DOT":2.959e-5,"MEAN_MOTION_DDOT":0}]
